     2.100          NAVIGATION                              RINEX VERSION / TYPE
fic2rin                                 04/21/2013 00:19:28 PGM / RUN BY / DATE
                                                            END OF HEADER
23 13  4 20 16  0  0.0  .933697447181D-04 -.363797880709D-11  .000000000000D+00
     .230000000000D+02 -.144375000000D+02  .491591905347D-08  .241132416156D+01
    -.720843672752D-06  .839667941909D-02  .672228634357D-05  .515372403526D+04
     .576000000000D+06 -.216066837311D-06  .139053131714D+01  .484287738800D-07
     .956023591820D+00  .251156250000D+03 -.290673966480D+01 -.823248577322D-08
    -.258939357292D-09  .100000000000D+01  .173600000000D+04  .000000000000D+00
     .240000000000D+01  .000000000000D+00 -.200234353542D-07  .230000000000D+02
     .568806000000D+06  .400000000000D+01
24 13  4 20 16  0  0.0 -.484660267830D-05 -.682121026330D-12  .000000000000D+00
     .950000000000D+02  .121250000000D+02  .444947105261D-08  .150937511437D+01
     .787898898125D-06  .898857135326D-03  .105015933514D-04  .515369491768D+04
     .576000000000D+06  .372529029846D-07  .241745624748D+01  .596046447754D-07
     .959057288929D+00  .174468750000D+03  .365468282147D+00 -.806676458455D-08
    -.864321716755D-10  .100000000000D+01  .173600000000D+04  .000000000000D+00
     .240000000000D+01  .000000000000D+00  .279396772385D-08  .950000000000D+02
     .568806000000D+06  .400000000000D+01
25 13  4 20 16  0  0.0  .893143005669D-04  .386535248253D-11  .000000000000D+00
     .470000000000D+02  .303125000000D+02  .444554231754D-08 -.337785689604D+00
     .145845115185D-05  .249063014053D-02  .572577118874D-05  .515355189133D+04
     .576000000000D+06 -.279396772385D-07 -.281755939164D+01  .409781932831D-07
     .972731451929D+00  .272531250000D+03  .591853744558D+00 -.820748473183D-08
     .141791620476D-09  .100000000000D+01  .173600000000D+04  .000000000000D+00
     .240000000000D+01  .000000000000D+00  .558793544769D-08  .470000000000D+02
     .568806000000D+06  .400000000000D+01
26 13  4 20 16  0  0.0 -.193887390196D-04  .151203494170D-10  .000000000000D+00
     .840000000000D+02 -.290625000000D+02  .425446292974D-08  .234434772838D+01
    -.179931521416D-05  .212797877612D-01  .707805156708D-05  .515366240120D+04
     .576000000000D+06  .173225998878D-06  .147036493940D+01 -.312924385071D-06
     .979201139841D+00  .248281250000D+03  .123410179560D+01 -.766781939546D-08
    -.410017078857D-09  .100000000000D+01  .173600000000D+04  .000000000000D+00
     .240000000000D+01  .000000000000D+00 -.605359673500D-08  .840000000000D+02
     .568806000000D+06  .400000000000D+01
27 13  4 20 16  0  0.0 -.178667251021D-03  .125055521494D-11  .000000000000D+00
     .540000000000D+02  .232812500000D+02  .541843998549D-08 -.174695127834D+01
     .124052166939D-05  .611996767111D-02  .568106770515D-05  .515366118431D+04
     .576000000000D+06  .968575477600D-07 -.280111159448D+01 -.558793544769D-07
     .977565107351D+00  .279718750000D+03  .837407926430D+00 -.795461705602D-08
     .183936233111D-09  .100000000000D+01  .173600000000D+04  .000000000000D+00
     .240000000000D+01  .630000000000D+02 -.190921127796D-07  .540000000000D+02
     .568806000000D+06  .400000000000D+01
28 13  4 20 16  0  0.0  .251600518823D-03  .329691829393D-11  .000000000000D+00
     .180000000000D+02  .220625000000D+02  .405874049140D-08 -.192698219038D+01
     .124983489513D-05  .185780966422D-01  .536628067493D-05  .515364098740D+04
     .576000000000D+06  .366941094398D-06 -.275509208160D+01  .782310962677D-07
     .983024562553D+00  .286375000000D+03 -.177125687079D+01 -.780675375406D-08
     .158578033983D-09  .100000000000D+01  .173600000000D+04  .000000000000D+00
     .240000000000D+01  .000000000000D+00 -.107102096081D-07  .180000000000D+02
     .568806000000D+06  .400000000000D+01
29 13  4 20 16  0  0.0  .428142957389D-03  .341060513165D-11  .000000000000D+00
     .790000000000D+02 -.671562500000D+02  .449161566525D-08  .137074164455D+00
    -.347569584846D-05  .197050406132D-02  .652670860291D-05  .515366169739D+04
     .576000000000D+06  .298023223877D-07 -.171549945250D+01 -.143423676491D-06
     .965439239791D+00  .258375000000D+03 -.105102899558D+01 -.814391065514D-08
    -.232866842696D-09  .100000000000D+01  .173600000000D+04  .000000000000D+00
     .240000000000D+01  .000000000000D+00 -.931322574615D-08  .790000000000D+02
     .568806000000D+06  .400000000000D+01
31 13  4 20 16  0  0.0  .311387702823D-03  .147792889038D-11  .000000000000D+00
     .300000000000D+01  .943750000000D+01  .396659379598D-08  .755866484827D+00
     .331550836563D-06  .794082297944D-02  .941567122936D-05  .515358039474D+04
     .576000000000D+06  .726431608200D-07  .244972625707D+01 -.152736902237D-06
     .980537904642D+00  .208312500000D+03 -.743520181846D+00 -.786068457192D-08
    -.116433421348D-09  .100000000000D+01  .173600000000D+04  .000000000000D+00
     .240000000000D+01  .000000000000D+00 -.130385160446D-07  .300000000000D+01
     .568806000000D+06  .400000000000D+01
 3 13  4 20 15 59 44.0  .196565873921D-03  .488853402203D-11  .000000000000D+00
     .000000000000D+00 -.541562500000D+02  .508271171534D-08  .237052713018D+01
    -.296905636787D-05  .161187406629D-01  .511296093464D-05  .515369062614D+04
     .575984000000D+06  .175088644028D-06 -.190572077978D+01 -.176951289177D-06
     .933849759208D+00  .264687500000D+03  .127989275240D+01 -.826927301984D-08
    -.101789954246D-09  .100000000000D+01  .173600000000D+04  .000000000000D+00
     .240000000000D+01  .000000000000D+00 -.465661287308D-08  .000000000000D+00
     .570156000000D+06  .400000000000D+01
 1 13  4 20 15 59 44.0  .180541537702D-04  .363797880709D-11  .000000000000D+00
     .700000000000D+01 -.437500000000D+01  .439161149968D-08  .141841533302D+01
    -.393018126488D-06  .177077553235D-02  .106077641249D-04  .515370480537D+04
     .575984000000D+06 -.279396772385D-07 -.715357247466D+00  .130385160446D-07
     .960257481550D+00  .173593750000D+03  .288427961519D+00 -.795247410961D-08
     .100004165575D-09  .100000000000D+01  .173600000000D+04  .000000000000D+00
     .240000000000D+01  .000000000000D+00  .838190317154D-08  .700000000000D+01
     .573006000000D+06  .400000000000D+01
 5 13  4 20 15 59 44.0 -.392241403461D-03 -.125055521494D-11  .000000000000D+00
     .900000000000D+01  .510000000000D+02  .510342686393D-08 -.192895409131D+01
     .238418579102D-05  .304214132484D-02  .666268169880D-05  .515359561157D+04
     .575984000000D+06  .279396772385D-07  .328479419629D+00 -.707805156708D-07
     .949314267687D+00  .244437500000D+03  .289581776712D+00 -.836499129261D-08
     .318584698903D-09  .100000000000D+01  .173600000000D+04  .000000000000D+00
     .240000000000D+01  .000000000000D+00 -.102445483208D-07  .900000000000D+01
     .573456000000D+06  .400000000000D+01
26 13  4 20 15 59 44.0 -.193892046809D-04  .151203494170D-10  .000000000000D+00
     .900000000000D+01 -.290625000000D+02  .425482008748D-08  .234201401856D+01
    -.179931521416D-05  .212797888089D-01  .707805156708D-05  .515366239929D+04
     .575984000000D+06  .173225998878D-06  .147036505644D+01 -.312924385071D-06
     .979201144230D+00  .248281250000D+03  .123410176488D+01 -.766781939546D-08
    -.410017078857D-09  .100000000000D+01  .173600000000D+04  .000000000000D+00
     .240000000000D+01  .000000000000D+00 -.605359673500D-08  .900000000000D+01
     .575706000000D+06  .400000000000D+01
 1 13  4 20 17 59 44.0  .180802308023D-04  .363797880709D-11  .000000000000D+00
     .800000000000D+01 -.728125000000D+01  .431553690229D-08  .246848722761D+01
    -.301748514175D-06  .177043501753D-02  .104028731585D-04  .515370530891D+04
     .583184000000D+06 -.298023223877D-07 -.715414535338D+00 -.204890966415D-07
     .960258245193D+00  .176875000000D+03  .288517010806D+00 -.793675916931D-08
     .105004373854D-09  .100000000000D+01  .173600000000D+04  .000000000000D+00
     .240000000000D+01  .000000000000D+00  .838190317154D-08  .800000000000D+01
     .576006000000D+06  .400000000000D+01
 3 13  4 20 17 59 44.0  .196601264179D-03  .488853402203D-11  .000000000000D+00
     .700000000000D+01 -.599687500000D+02  .514092842602D-08 -.286247651967D+01
    -.307895243168D-05  .161198519636D-01  .482052564621D-05  .515368859673D+04
     .583184000000D+06  .173225998878D-06 -.190578008648D+01 -.782310962677D-07
     .933849023360D+00  .270812500000D+03  .127988631263D+01 -.824141471657D-08
    -.957182727646D-10  .100000000000D+01  .173600000000D+04  .000000000000D+00
     .240000000000D+01  .000000000000D+00 -.465661287308D-08  .700000000000D+01
     .576006000000D+06  .400000000000D+01
 5 13  4 20 17 59 44.0 -.392250251025D-03 -.125055521494D-11  .000000000000D+00
     .100000000000D+02  .480625000000D+02  .500699427569D-08 -.878630443148D+00
     .255554914474D-05  .304233061615D-02  .641494989395D-05  .515359619522D+04
     .583184000000D+06  .558793544769D-07  .328419238105D+00 -.372529029846D-07
     .949316527895D+00  .244781250000D+03  .289490584251D+00 -.838320633705D-08
     .308941440080D-09  .100000000000D+01  .173600000000D+04  .000000000000D+00
     .240000000000D+01  .000000000000D+00 -.102445483208D-07  .100000000000D+02
     .576006000000D+06  .400000000000D+01
 2 13  4 20 18  0  0.0  .428260769695D-03  .193267624127D-11  .000000000000D+00
     .630000000000D+02 -.843750000000D+01  .462554981557D-08 -.303675459999D+01
    -.428408384323D-06  .122777530923D-01  .116191804409D-04  .515365161705D+04
     .583200000000D+06 -.782310962677D-07 -.736247724953D+00 -.119209289551D-06
     .938758469641D+00  .141906250000D+03 -.261814979190D+01 -.792711591048D-08
     .165364030933D-09  .100000000000D+01  .173600000000D+04  .000000000000D+00
     .240000000000D+01  .000000000000D+00 -.176951289177D-07  .630000000000D+02
     .576006000000D+06  .400000000000D+01
